{"type":"Feature","properties":{"MUN":"SPRING LAKE BORO","COUNTY":"MONMOUTH","MUN_LABEL":"Spring Lake Borough","MUN_TYPE":"Borough","NAME":"Spring Lake Borough","GNIS_NAME":"Borough of Spring Lake"},"geometry":{"type":"Polygon","coordinates":[[[-74.016069,40.1674669],[-74.0162504,40.1670134],[-74.0163244,40.166818],[-74.0163856,40.1665898],[-74.0164126,40.1664528],[-74.0164133,40.1663585],[-74.0163883,40.1662099],[-74.0163007,40.1659525],[-74.0162588,40.1658309],[-74.0162558,40.1657195],[-74.0162787,40.1656453],[-74.0163164,40.1655826],[-74.0164176,40.165483],[-74.0165115,40.1653663],[-74.0166095,40.1652068],[-74.0167041,40.1649901],[-74.0168026,40.1647534],[-74.017068,40.1643332],[-74.01714,40.1641564],[-74.0172086,40.1639339],[-74.0172246,40.1637826],[-74.017218,40.1636626],[-74.0171176,40.1633779],[-74.0170186,40.1631661],[-74.0170117,40.1630861],[-74.0170221,40.1630598],[-74.017039,40.1630455],[-74.0171492,40.162996],[-74.0172239,40.1629635],[-74.0172856,40.1629223],[-74.0173475,40.1628569],[-74.0175093,40.1626162],[-74.0176919,40.1623242],[-74.0177706,40.1621152],[-74.0179569,40.1615733],[-74.0181009,40.1612111],[-74.0181361,40.1609742],[-74.0181533,40.1606458],[-74.0181301,40.1605157],[-74.0180641,40.1603669],[-74.0179538,40.1601665],[-74.0179209,40.1600835],[-74.0179249,40.1600493],[-74.0179548,40.1600237],[-74.0180483,40.1599726],[-74.0181608,40.1598531],[-74.0182775,40.1596651],[-74.0183456,40.1595197],[-74.0186719,40.1589055],[-74.0187801,40.1586103],[-74.0188261,40.158422],[-74.0188534,40.1582536],[-74.0188649,40.1581623],[-74.0188546,40.1580822],[-74.0188219,40.1579621],[-74.0188281,40.157875],[-74.018862,40.157818],[-74.0189483,40.1577298],[-74.0190906,40.1576133],[-74.019173,40.1575336],[-74.019252,40.1574169],[-74.0193129,40.1572286],[-74.0193962,40.157029],[-74.0198091,40.1562837],[-74.019942,40.1559158],[-74.0199583,40.1557159],[-74.0199567,40.155679],[-74.0199365,40.1556416],[-74.0198847,40.1555956],[-74.0198348,40.1555426],[-74.0198007,40.1554965],[-74.0197815,40.1554467],[-74.0197754,40.1554054],[-74.0197821,40.1553667],[-74.0198089,40.1552526],[-74.0198351,40.1551924],[-74.0198543,40.1551613],[-74.0199253,40.1551131],[-74.0199779,40.1550505],[-74.0200949,40.1548224],[-74.0203104,40.1543463],[-74.0204703,40.1541142],[-74.0205982,40.1539262],[-74.0207237,40.1535496],[-74.0207587,40.1533384],[-74.0207621,40.153117],[-74.020748,40.152997],[-74.0207078,40.1528997],[-74.0206525,40.1528119],[-74.0206231,40.1527651],[-74.0205901,40.1526964],[-74.0205851,40.1526635],[-74.0205885,40.1526387],[-74.0205943,40.1526279],[-74.0206275,40.1525991],[-74.0208815,40.1524977],[-74.020935,40.1524727],[-74.0209599,40.1524504],[-74.0210318,40.1523808],[-74.0210804,40.1523186],[-74.0211711,40.1521247],[-74.0212151,40.1519549],[-74.0213922,40.1516414],[-74.0216673,40.1511656],[-74.0217074,40.15103],[-74.0219308,40.1504825],[-74.0219544,40.1503055],[-74.0219557,40.150117],[-74.0219065,40.1499668],[-74.0218885,40.1498811],[-74.0218591,40.1498324],[-74.0218294,40.1498094],[-74.0217664,40.149772],[-74.0217331,40.1497433],[-74.021726,40.1497062],[-74.021741,40.1496748],[-74.0217897,40.1496321],[-74.0219175,40.1494641],[-74.0219855,40.1493159],[-74.0220462,40.1491533],[-74.0222085,40.1488398],[-74.0222788,40.1486301],[-74.0224428,40.1480709],[-74.0225108,40.1476613],[-74.0225047,40.1474699],[-74.0224612,40.1473041],[-74.0224096,40.1472267],[-74.0223541,40.1471837],[-74.0221722,40.1471058],[-74.0221649,40.1470886],[-74.0221651,40.1470629],[-74.0221876,40.1470401],[-74.0222474,40.1469975],[-74.0223748,40.1468867],[-74.0224311,40.1468098],[-74.0226558,40.1463551],[-74.0228829,40.1458105],[-74.0229951,40.1454667],[-74.0230641,40.1451899],[-74.0230647,40.1450985],[-74.0230542,40.1450014],[-74.023025,40.1449213],[-74.0229076,40.1446808],[-74.022884,40.1445908],[-74.0228843,40.1445451],[-74.0228957,40.1445137],[-74.0229144,40.1444995],[-74.0229854,40.1444598],[-74.0230827,40.1443945],[-74.0231539,40.1443177],[-74.0232255,40.1441894],[-74.0232787,40.1440468],[-74.0233467,40.1438928],[-74.0235239,40.1435708],[-74.0235939,40.1434011],[-74.0237189,40.1430988],[-74.0237877,40.1428392],[-74.0238571,40.142491],[-74.0239367,40.1420157],[-74.0241218,40.1416252],[-74.0244807,40.1408668],[-74.0246102,40.1404503],[-74.0246218,40.1403789],[-74.0246285,40.1402721],[-74.0246291,40.1401795],[-74.0246241,40.1400447],[-74.0245986,40.1399704],[-74.0245879,40.1398989],[-74.0245996,40.1398304],[-74.0246336,40.1397534],[-74.0246985,40.139528],[-74.0251193,40.1386914],[-74.025276,40.1383707],[-74.0252928,40.1383137],[-74.0253143,40.1382422],[-74.0253113,40.13821],[-74.025307,40.1381823],[-74.0252977,40.1381545],[-74.0252851,40.1381308],[-74.0252517,40.1381078],[-74.0252424,40.1381024],[-74.0252515,40.1381042],[-74.0261308,40.1382621],[-74.0268713,40.1383963],[-74.0269981,40.1384338],[-74.027152,40.1384698],[-74.0273334,40.1385111],[-74.0274757,40.1385523],[-74.0275491,40.138572],[-74.0276433,40.138583],[-74.0277375,40.1385975],[-74.0278319,40.1385873],[-74.0279193,40.1385841],[-74.0279517,40.1385883],[-74.028247,40.1386315],[-74.0289029,40.1387686],[-74.0293838,40.1388882],[-74.0315858,40.1394685],[-74.032591,40.1397582],[-74.0331038,40.139901],[-74.033994,40.1400961],[-74.0346971,40.1402632],[-74.03565,40.1404312],[-74.036523,40.1405305],[-74.0370793,40.1405696],[-74.0374713,40.1406037],[-74.0376239,40.1406168],[-74.0376461,40.1406187],[-74.0377401,40.1406282],[-74.0367135,40.1451219],[-74.0368297,40.1451376],[-74.0322696,40.1653779],[-74.0322574,40.165382],[-74.0320266,40.1654141],[-74.0319203,40.1658716],[-74.0297523,40.1665717],[-74.0295127,40.1662144],[-74.0284963,40.1667447],[-74.0281186,40.1663585],[-74.0276643,40.1666844],[-74.0273748,40.1667496],[-74.020533,40.1691612],[-74.017861,40.1671832],[-74.016069,40.1674669]]]}}
